[{"OBJECT_NAME":"KUIPER-00043","OBJECT_ID":"2025-134E","EPOCH":"2026-03-09T22:00:01.999584","MEAN_MOTION":14.81364688,"ECCENTRICITY":0.00016525,"INCLINATION":51.9007,"RA_OF_ASC_NODE":232.0418,"ARG_OF_PERICENTER":110.2008,"MEAN_ANOMALY":148.1192,"EPHEMERIS_TYPE":0,"CLASSIFICATION_TYPE":"U","NORAD_CAT_ID":64504,"ELEMENT_SET_NO":999,"REV_AT_EPOCH":516,"BSTAR":0.0028433581,"MEAN_MOTION_DOT":0.0002228,"MEAN_MOTION_DDOT":0},{"OBJECT_NAME":"SL-14 R\/B","OBJECT_ID":"1986-074B","EPOCH":"2026-03-09T21:36:30.309984","MEAN_MOTION":14.85367529,"ECCENTRICITY":0.00173438,"INCLINATION":82.5166,"RA_OF_ASC_NODE":202.2228,"ARG_OF_PERICENTER":185.2787,"MEAN_ANOMALY":295.3986,"EPHEMERIS_TYPE":0,"CLASSIFICATION_TYPE":"U","NORAD_CAT_ID":16987,"ELEMENT_SET_NO":999,"REV_AT_EPOCH":10999,"BSTAR":8.4650841e-5,"MEAN_MOTION_DOT":7.54e-6,"MEAN_MOTION_DDOT":0}]
